NORAD_CAT_ID,OBJECT_NAME,OBJECT_TYPE,EPOCH,MEAN_MOTION,ECCENTRICITY,INCLINATION,RA_OF_ASC_NODE,ARG_OF_PERICENTER,MEAN_ANOMALY,BSTAR,MEAN_MOTION_DOT,MEAN_MOTION_DDOT,TLE_LINE0,TLE_LINE1,TLE_LINE2,SEMIMAJOR_AXIS,PERIOD,APOGEE,PERIGEE,DECAYED
52350.0,STARLINK-3754,PAYLOAD,2024-02-12 02:27:09,15.08842069,0.0001559,53.2186,355.5713,105.706,254.4104,4.1655e-05,3.75e-06,0.0,0 STARLINK-3754,1 52350U 22045V   24043.10218808  .00000375  00000-0  41655-4 0  9999,2 52350  53.2186 355.5713 0001559 105.7060 254.4104 15.08842069101566,6917.874,95.437,540.818,538.661,0.0
52350.0,STARLINK-3754,PAYLOAD,2024-02-12 19:56:24,15.0883581,0.000153,53.2179,352.3015,106.9888,253.1272,4.559e-05,4.38e-06,0.0,0 STARLINK-3754,1 52350U 22045V   24043.83083355  .00000438  00000-0  45590-4 0  9998,2 52350  53.2179 352.3015 0001530 106.9888 253.1272 15.08835810101678,6917.893,95.438,540.817,538.7,0.0
52350.0,STARLINK-3754,PAYLOAD,2024-02-13 05:28:42,15.08847523,0.0001336,53.2178,350.5199,86.1928,273.9217,-1.3121e-05,-4.97e-06,0.0,0 STARLINK-3754,1 52350U 22045V   24044.22826898 -.00000497  00000-0 -13121-4 0  9991,2 52350  53.2178 350.5199 0001336  86.1928 273.9217 15.08847523101738,6917.857,95.437,540.647,538.798,0.0
52350.0,STARLINK-3754,PAYLOAD,2024-02-13 13:25:38,15.08842934,0.0001268,53.2177,349.0331,98.9946,261.119,-3.2612e-05,-8.07e-06,0.0,0 STARLINK-3754,1 52350U 22045V   24044.55947079 -.00000807  00000-0 -32612-4 0  9993,2 52350  53.2177 349.0331 0001268  98.9946 261.1190 15.08842934101788,6917.871,95.437,540.614,538.859,0.0
52350.0,STARLINK-3754,PAYLOAD,2024-02-14 05:19:28,15.08857217,0.0001364,53.2182,346.0597,93.4802,266.6346,0.00021215,3.092e-05,0.0,0 STARLINK-3754,1 52350U 22045V   24045.22185559  .00003092  00000-0  21215-3 0  9998,2 52350  53.2182 346.0597 0001364  93.4802 266.6346 15.08857217101887,6917.828,95.436,540.636,538.749,0.0
52350.0,STARLINK-3754,PAYLOAD,2024-02-14 13:16:26,15.08831031,0.0001849,53.219,344.5738,76.9856,283.1343,8.54e-09,-2.88e-06,0.0,0 STARLINK-3754,1 52350U 22045V   24045.55308050 -.00000288  00000-0  85400-8 0  9993,2 52350  53.2190 344.5738 0001849  76.9856 283.1343 15.08831031101932,6917.908,95.438,541.052,538.494,0.0
52350.0,STARLINK-3754,PAYLOAD,2024-02-14 19:37:59,15.08830244,0.0002308,53.2189,343.3841,80.502,279.6233,-3.4273e-05,-8.34e-06,0.0,0 STARLINK-3754,1 52350U 22045V   24045.81804563 -.00000834  00000-0 -34273-4 0  9998,2 52350  53.2189 343.3841 0002308  80.5020 279.6233 15.08830244101974,6917.91,95.438,541.372,538.179,0.0
52350.0,STARLINK-3754,PAYLOAD,2024-02-15 01:59:33,15.08804722,0.0001163,53.2186,342.1939,90.6153,269.4972,-0.00023985,-4.099e-05,0.0,0 STARLINK-3754,1 52350U 22045V   24046.08302836 -.00004099  00000-0 -23985-3 0  9998,2 52350  53.2186 342.1939 0001163  90.6153 269.4972 15.08804722102018,6917.988,95.44,540.658,539.049,0.0
52350.0,STARLINK-3754,PAYLOAD,2024-02-15 05:10:20,15.0880588,0.0001317,53.2184,341.5996,86.6552,273.4591,-0.00022632,-3.884e-05,0.0,0 STARLINK-3754,1 52350U 22045V   24046.21551086 -.00003884  00000-0 -22632-3 0  9995,2 52350  53.2184 341.5996 0001317  86.6552 273.4591 15.08805880102031,6917.985,95.44,540.761,538.939,0.0
52350.0,STARLINK-3754,PAYLOAD,2024-02-15 13:07:14,15.08829144,0.0001073,53.2183,340.1151,99.9312,260.1801,1.4979e-05,-4.9e-07,0.0,0 STARLINK-3754,1 52350U 22045V   24046.54669196 -.00000049  00000-0  14979-4 0  9998,2 52350  53.2183 340.1151 0001073  99.9312 260.1801 15.08829144102089,6917.914,95.438,540.521,539.036,0.0
52350.0,STARLINK-3754,PAYLOAD,2024-02-15 22:39:32,15.0883461,0.0001172,53.2186,338.3318,86.2387,273.8739,2.8645e-05,1.68e-06,0.0,0 STARLINK-3754,1 52350U 22045V   24046.94413113  .00000168  00000-0  28645-4 0  9994,2 52350  53.2186 338.3318 0001172  86.2387 273.8739 15.08834610102149,6917.897,95.438,540.573,538.951,0.0
52350.0,STARLINK-3754,PAYLOAD,2024-02-16 01:50:17,15.08860642,0.0001823,53.2179,337.7354,132.0627,228.052,5.8957e-05,6.51e-06,0.0,0 STARLINK-3754,1 52350U 22045V   24047.07659234  .00000651  00000-0  58957-4 0  9991,2 52350  53.2179 337.7354 0001823 132.0627 228.0520 15.08860642102160,6917.817,95.436,540.943,538.421,0.0
52350.0,STARLINK-3754,PAYLOAD,2024-02-16 05:01:02,15.08871804,0.0001583,53.2171,337.1387,139.6279,220.4831,0.00016207,2.294e-05,0.0,0 STARLINK-3754,1 52350U 22045V   24047.20906008  .00002294  00000-0  16207-3 0  9996,2 52350  53.2171 337.1387 0001583 139.6279 220.4831 15.08871804102186,6917.783,95.436,540.743,538.553,0.0
52350.0,STARLINK-3754,PAYLOAD,2024-02-16 22:30:18,15.0883503,0.0001475,53.2177,333.8652,125.131,234.9821,0.00041602,6.338e-05,0.0,0 STARLINK-3754,1 52350U 22045V   24047.93771378  .00006338  00000-0  41602-3 0  9996,2 52350  53.2177 333.8652 0001475 125.1310 234.9821 15.08835030102298,6917.896,95.438,540.781,538.74,0.0
52350.0,STARLINK-3754,PAYLOAD,2024-02-17 01:41:04,15.08837706,0.0001604,53.2191,333.273,101.8426,258.2746,0.00043218,6.596e-05,0.0,0 STARLINK-3754,1 52350U 22045V   24048.07019356  .00006596  00000-0  43218-3 0  9994,2 52350  53.2191 333.2730 0001604 101.8426 258.2746 15.08837706102318,6917.887,95.438,540.862,538.643,0.0
52350.0,STARLINK-3754,PAYLOAD,2024-02-17 19:10:20,15.0884542,0.0001657,53.2178,330.0013,114.9349,245.1815,-3.6105e-05,-8.63e-06,0.0,0 STARLINK-3754,1 52350U 22045V   24048.79884400 -.00000863  00000-0 -36105-4 0  9994,2 52350  53.2178 330.0013 0001657 114.9349 245.1815 15.08845420102425,6917.864,95.437,540.875,538.583,0.0
52350.0,STARLINK-3754,PAYLOAD,2024-02-17 22:21:06,15.08844716,0.000172,53.2184,329.41,121.0727,239.0434,8.0411e-06,-1.6e-06,0.0,0 STARLINK-3754,1 52350U 22045V   24048.93132153 -.00000160  00000-0  80411-5 0  9990,2 52350  53.2184 329.4100 0001720 121.0727 239.0434 15.08844716102449,6917.866,95.437,540.921,538.541,0.0
52350.0,STARLINK-3754,PAYLOAD,2024-02-18 11:04:10,15.08858583,0.0001305,53.218,327.0326,103.1393,256.9745,-0.00017368,-3.052e-05,0.0,0 STARLINK-3754,1 52350U 22045V   24049.46123366 -.00003052  00000-0 -17368-3 0  9998,2 52350  53.2180 327.0326 0001305 103.1393 256.9745 15.08858583102527,6917.824,95.436,540.591,538.786,0.0
52350.0,STARLINK-3754,PAYLOAD,2024-02-18 19:01:06,15.08847399,0.000176,53.2198,325.5504,116.8509,243.2663,-0.00014647,-2.619e-05,0.0,0 STARLINK-3754,1 52350U 22045V   24049.79244063 -.00002619  00000-0 -14647-3 0  9997,2 52350  53.2198 325.5504 0001760 116.8509 243.2663 15.08847399102578,6917.858,95.437,540.94,538.505,0.0
52350.0,STARLINK-3754,PAYLOAD,2024-02-18 22:11:52,15.08848562,0.0001769,53.2198,324.9548,112.3277,247.7903,-0.00012967,-2.352e-05,0.0,0 STARLINK-3754,1 52350U 22045V   24049.92491880 -.00002352  00000-0 -12967-3 0  9990,2 52350  53.2198 324.9548 0001769 112.3277 247.7903 15.08848562102592,6917.854,95.437,540.943,538.495,0.0
52350.0,STARLINK-3754,PAYLOAD,2024-02-19 10:54:57,15.08849017,0.0001328,53.2174,322.5663,80.1689,279.9453,-8.9361e-05,-1.71e-05,0.0,0 STARLINK-3754,1 52350U 22045V   24050.45483412 -.00001710  00000-0 -89361-4 0  9992,2 52350  53.2174 322.5663 0001328  80.1689 279.9453 15.08849017102670,6917.853,95.437,540.637,538.799,0.0
52350.0,STARLINK-3754,PAYLOAD,2024-02-19 22:02:41,15.08827529,0.0001445,53.2182,320.4916,97.8926,262.223,-6.3245e-05,-1.294e-05,0.0,0 STARLINK-3754,1 52350U 22045V   24050.91853204 -.00001294  00000-0 -63245-4 0  9993,2 52350  53.2182 320.4916 0001445  97.8926 262.2230 15.08827529102746,6917.919,95.438,540.783,538.784,0.0
52350.0,STARLINK-3754,PAYLOAD,2024-02-20 02:48:50,15.08830997,0.0001567,53.2181,319.5993,94.3515,265.7656,-3.3715e-05,-8.24e-06,0.0,0 STARLINK-3754,1 52350U 22045V   24051.11725043 -.00000824  00000-0 -33715-4 0  9992,2 52350  53.2181 319.5993 0001567  94.3515 265.7656 15.08830997102776,6917.908,95.438,540.857,538.689,0.0
52350.0,STARLINK-3754,PAYLOAD,2024-02-20 10:45:45,15.08835556,0.0001583,53.2194,318.1143,99.5091,260.608,1.5722e-05,-3.8e-07,0.0,0 STARLINK-3754,1 52350U 22045V   24051.44844752 -.00000038  00000-0  15722-4 0  9991,2 52350  53.2194 318.1143 0001583  99.5091 260.6080 15.08835556102823,6917.894,95.438,540.854,538.664,0.0
52350.0,STARLINK-3754,PAYLOAD,2024-02-20 21:53:27,15.08844386,0.0001652,53.2179,316.0317,92.3166,267.8015,0.00011755,1.583e-05,0.0,0 STARLINK-3754,1 52350U 22045V   24051.91211960  .00001583  00000-0  11755-3 0  9998,2 52350  53.2179 316.0317 0001652  92.3166 267.8015 15.08844386102892,6917.867,95.437,540.875,538.589,0.0
52350.0,STARLINK-3754,PAYLOAD,2024-02-21 02:39:36,15.08851023,0.0001505,53.2182,315.1353,88.4056,271.7109,0.00016459,2.333e-05,0.0,0 STARLINK-3754,1 52350U 22045V   24052.11083398  .00002333  00000-0  16459-3 0  9993,2 52350  53.2182 315.1353 0001505  88.4056 271.7109 15.08851023102925,6917.847,95.437,540.753,538.671,0.0
52350.0,STARLINK-3754,PAYLOAD,2024-02-21 10:36:32,15.08846758,0.0001326,53.2178,313.6491,92.1688,267.9457,3.3234e-05,2.41e-06,0.0,0 STARLINK-3754,1 52350U 22045V   24052.44203904  .00000241  00000-0  33234-4 0  9993,2 52350  53.2178 313.6491 0001326  92.1688 267.9457 15.08846758102977,6917.86,95.437,540.642,538.807,0.0
52350.0,STARLINK-3754,PAYLOAD,2024-02-21 21:44:14,15.08832181,0.0001946,53.2182,311.5653,81.2583,278.863,0.00012022,1.625e-05,0.0,0 STARLINK-3754,1 52350U 22045V   24052.90572907  .00001625  00000-0  12022-3 0  9994,2 52350  53.2182 311.5653 0001946  81.2583 278.8630 15.08832181103048,6917.904,95.438,541.116,538.423,0.0
52350.0,STARLINK-3754,PAYLOAD,2024-02-22 00:55:01,15.08836379,0.0001602,53.2173,310.972,85.5147,274.6028,6.3388e-05,7.21e-06,0.0,0 STARLINK-3754,1 52350U 22045V   24053.03820811  .00000721  00000-0  63388-4 0  9997,2 52350  53.2173 310.9720 0001602  85.5147 274.6028 15.08836379103068,6917.891,95.438,540.865,538.648,0.0
52350.0,STARLINK-3754,PAYLOAD,2024-02-22 21:35:01,15.08848441,0.0001671,53.2174,307.1067,84.5863,275.5319,5.0144e-05,5.1e-06,0.0,0 STARLINK-3754,1 52350U 22045V   24053.89931937  .00000510  00000-0  50144-4 0  9995,2 52350  53.2174 307.1067 0001671  84.5863 275.5319 15.08848441103191,6917.855,95.437,540.876,538.564,0.0
